[{"OBJECT_NAME":"IRIDIUM 107","OBJECT_ID":"2017-061F","EPOCH":"2026-03-09T22:26:14.574624","MEAN_MOTION":14.34217551,"ECCENTRICITY":0.00017516,"INCLINATION":86.3913,"RA_OF_ASC_NODE":66.7602,"ARG_OF_PERICENTER":87.4442,"MEAN_ANOMALY":272.6954,"EPHEMERIS_TYPE":0,"CLASSIFICATION_TYPE":"U","NORAD_CAT_ID":42960,"ELEMENT_SET_NO":999,"REV_AT_EPOCH":44059,"BSTAR":-3.536384e-6,"MEAN_MOTION_DOT":1.0e-7,"MEAN_MOTION_DDOT":0},{"OBJECT_NAME":"NOAA 16 DEB","OBJECT_ID":"2000-055NW","EPOCH":"2026-03-08T09:29:39.969600","MEAN_MOTION":14.32113002,"ECCENTRICITY":0.00128778,"INCLINATION":98.6327,"RA_OF_ASC_NODE":133.2487,"ARG_OF_PERICENTER":86.1822,"MEAN_ANOMALY":274.0833,"EPHEMERIS_TYPE":0,"CLASSIFICATION_TYPE":"U","NORAD_CAT_ID":41657,"ELEMENT_SET_NO":999,"REV_AT_EPOCH":51160,"BSTAR":0.0023667401,"MEAN_MOTION_DOT":6.331e-5,"MEAN_MOTION_DDOT":0}]
